{
  "type": "FeatureCollection",
  "features": [
    {
      "type": "Feature",
      "properties": {
        "norad_id": 31047,
        "name": "FENGYUN 1C DEB",
        "group": "fengyun-1c-debris",
        "lat": -37.897120712545764,
        "lon": 171.87619773910967,
        "alt_km": 850.0396001146455,
        "timestamp": "2025-12-27T16:33:30.502753+00:00",
        "meta_object_name": "FENGYUN 1C DEB",
        "meta_object_id": "1999-025BER",
        "meta_epoch": "2025-12-27T11:09:30.758112",
        "meta_mean_motion": 14.13865283,
        "meta_eccentricity": 0.0026309,
        "meta_inclination": 98.7011,
        "meta_ra_of_asc_node": 358.5033,
        "meta_arg_of_pericenter": 136.3363,
        "meta_mean_anomaly": 17.1117,
        "meta_ephemeris_type": 0,
        "meta_classification_type": "U",
        "meta_norad_cat_id": 31047,
        "meta_element_set_no": 999,
        "meta_rev_at_epoch": 96567,
        "meta_bstar": 0.00043898,
        "meta_mean_motion_dot": 7.92e-06,
        "meta_mean_motion_ddot": 0,
        "tle_line1": "1 31047U 99025BER 25361.46493933  .00000792  00000+0  43898-3 0  9990",
        "tle_line2": "2 31047  98.7011 358.5033 0026309 136.3363  17.1117 14.13865283965677"
      },
      "geometry": {
        "type": "Point",
        "coordinates": [
          171.87619773910967,
          -37.897120712545764
        ]
      }
    },
    {
      "type": "Feature",
      "properties": {
        "norad_id": 31051,
        "name": "FENGYUN 1C DEB",
        "group": "fengyun-1c-debris",
        "lat": 77.80610138443423,
        "lon": -102.3183816901331,
        "alt_km": 837.2249700441989,
        "timestamp": "2025-12-27T16:33:30.502763+00:00",
        "meta_object_name": "FENGYUN 1C DEB",
        "meta_object_id": "1999-025BEV",
        "meta_epoch": "2025-12-26T21:16:02.882208",
        "meta_mean_motion": 14.03042647,
        "meta_eccentricity": 0.0053437,
        "meta_inclination": 98.8163,
        "meta_ra_of_asc_node": 30.9984,
        "meta_arg_of_pericenter": 97.0245,
        "meta_mean_anomaly": 263.7003,
        "meta_ephemeris_type": 0,
        "meta_classification_type": "U",
        "meta_norad_cat_id": 31051,
        "meta_element_set_no": 999,
        "meta_rev_at_epoch": 64017,
        "meta_bstar": 0.00040027,
        "meta_mean_motion_dot": 5.88e-06,
        "meta_mean_motion_ddot": 0,
        "tle_line1": "1 31051U 99025BEV 25360.88614447  .00000588  00000+0  40027-3 0  9999",
        "tle_line2": "2 31051  98.8163  30.9984 0053437  97.0245 263.7003 14.03042647640179"
      },
      "geometry": {
        "type": "Point",
        "coordinates": [
          -102.3183816901331,
          77.80610138443423
        ]
      }
    },
    {
      "type": "Feature",
      "properties": {
        "norad_id": 31053,
        "name": "FENGYUN 1C DEB",
        "group": "fengyun-1c-debris",
        "lat": -50.17004489659751,
        "lon": 133.77064361301697,
        "alt_km": 1041.185309059466,
        "timestamp": "2025-12-27T16:33:30.502773+00:00",
        "meta_object_name": "FENGYUN 1C DEB",
        "meta_object_id": "1999-025BEX",
        "meta_epoch": "2025-12-27T02:50:29.711616",
        "meta_mean_motion": 13.75921158,
        "meta_eccentricity": 0.03085721,
        "meta_inclination": 98.794,
        "meta_ra_of_asc_node": 122.5463,
        "meta_arg_of_pericenter": 56.5877,
        "meta_mean_anomaly": 306.4389,
        "meta_ephemeris_type": 0,
        "meta_classification_type": "U",
        "meta_norad_cat_id": 31053,
        "meta_element_set_no": 999,
        "meta_rev_at_epoch": 93674,
        "meta_bstar": 0.0014026779,
        "meta_mean_motion_dot": 1.89e-05,
        "meta_mean_motion_ddot": 0,
        "tle_line1": "1 31053U 99025BEX 25361.11839944  .00001890  00000+0  14027-2 0  9996",
        "tle_line2": "2 31053  98.7940 122.5463 0308572  56.5877 306.4389 13.75921158936741"
      },
      "geometry": {
        "type": "Point",
        "coordinates": [
          133.77064361301697,
          -50.17004489659751
        ]
      }
    },
    {
      "type": "Feature",
      "properties": {
        "norad_id": 31054,
        "name": "FENGYUN 1C DEB",
        "group": "fengyun-1c-debris",
        "lat": -63.25673484090308,
        "lon": 176.5934253230606,
        "alt_km": 866.5342302776025,
        "timestamp": "2025-12-27T16:33:30.502783+00:00",
        "meta_object_name": "FENGYUN 1C DEB",
        "meta_object_id": "1999-025BEY",
        "meta_epoch": "2025-12-27T12:44:10.724352",
        "meta_mean_motion": 14.12178593,
        "meta_eccentricity": 0.001078,
        "meta_inclination": 98.6898,
        "meta_ra_of_asc_node": 14.1075,
        "meta_arg_of_pericenter": 82.2327,
        "meta_mean_anomaly": 73.1036,
        "meta_ephemeris_type": 0,
        "meta_classification_type": "U",
        "meta_norad_cat_id": 31054,
        "meta_element_set_no": 999,
        "meta_rev_at_epoch": 96972,
        "meta_bstar": 0.00015561,
        "meta_mean_motion_dot": 2.43e-06,
        "meta_mean_motion_ddot": 0,
        "tle_line1": "1 31054U 99025BEY 25361.53067968  .00000243  00000+0  15561-3 0  9998",
        "tle_line2": "2 31054  98.6898  14.1075 0010780  82.2327  73.1036 14.12178593969725"
      },
      "geometry": {
        "type": "Point",
        "coordinates": [
          176.5934253230606,
          -63.25673484090308
        ]
      }
    },
    {
      "type": "Feature",
      "properties": {
        "norad_id": 31055,
        "name": "FENGYUN 1C DEB",
        "group": "fengyun-1c-debris",
        "lat": -81.10914046913592,
        "lon": 112.74354416442047,
        "alt_km": 852.4366197654517,
        "timestamp": "2025-12-27T16:33:30.502793+00:00",
        "meta_object_name": "FENGYUN 1C DEB",
        "meta_object_id": "1999-025BEZ",
        "meta_epoch": "2025-12-25T22:58:14.257344",
        "meta_mean_motion": 14.10392623,
        "meta_eccentricity": 0.0024369,
        "meta_inclination": 98.7585,
        "meta_ra_of_asc_node": 30.8253,
        "meta_arg_of_pericenter": 233.3835,
        "meta_mean_anomaly": 244.5531,
        "meta_ephemeris_type": 0,
        "meta_classification_type": "U",
        "meta_norad_cat_id": 31055,
        "meta_element_set_no": 999,
        "meta_rev_at_epoch": 96308,
        "meta_bstar": 0.00033515,
        "meta_mean_motion_dot": 5.54e-06,
        "meta_mean_motion_ddot": 0,
        "tle_line1": "1 31055U 99025BEZ 25359.95710946  .00000554  00000+0  33515-3 0  9997",
        "tle_line2": "2 31055  98.7585  30.8253 0024369 233.3835 244.5531 14.10392623963081"
      },
      "geometry": {
        "type": "Point",
        "coordinates": [
          112.74354416442047,
          -81.10914046913592
        ]
      }
    },
    {
      "type": "Feature",
      "properties": {
        "norad_id": 31056,
        "name": "FENGYUN 1C DEB",
        "group": "fengyun-1c-debris",
        "lat": 80.29602599690777,
        "lon": -79.34916558431728,
        "alt_km": 852.101573650827,
        "timestamp": "2025-12-27T16:33:30.502804+00:00",
        "meta_object_name": "FENGYUN 1C DEB",
        "meta_object_id": "1999-025BFA",
        "meta_epoch": "2025-12-26T10:19:01.385760",
        "meta_mean_motion": 14.14324845,
        "meta_eccentricity": 0.0024888,
        "meta_inclination": 98.6697,
        "meta_ra_of_asc_node": 342.584,
        "meta_arg_of_pericenter": 303.0683,
        "meta_mean_anomaly": 210.3324,
        "meta_ephemeris_type": 0,
        "meta_classification_type": "U",
        "meta_norad_cat_id": 31056,
        "meta_element_set_no": 999,
        "meta_rev_at_epoch": 97011,
        "meta_bstar": 0.00037109,
        "meta_mean_motion_dot": 6.68e-06,
        "meta_mean_motion_ddot": 0,
        "tle_line1": "1 31056U 99025BFA 25360.42987715  .00000668  00000+0  37109-3 0  9991",
        "tle_line2": "2 31056  98.6697 342.5840 0024888 303.0683 210.3324 14.14324845970110"
      },
      "geometry": {
        "type": "Point",
        "coordinates": [
          -79.34916558431728,
          80.29602599690777
        ]
      }
    },
    {
      "type": "Feature",
      "properties": {
        "norad_id": 31057,
        "name": "FENGYUN 1C DEB",
        "group": "fengyun-1c-debris",
        "lat": -57.98998208761587,
        "lon": -151.7526714288404,
        "alt_km": 557.4035418687381,
        "timestamp": "2025-12-27T16:33:30.502814+00:00",
        "meta_object_name": "FENGYUN 1C DEB",
        "meta_object_id": "1999-025BFB",
        "meta_epoch": "2025-12-23T20:35:18.344544",
        "meta_mean_motion": 14.79509399,
        "meta_eccentricity": 0.01376332,
        "meta_inclination": 99.2549,
        "meta_ra_of_asc_node": 38.9584,
        "meta_arg_of_pericenter": 217.07,
        "meta_mean_anomaly": 142.094,
        "meta_ephemeris_type": 0,
        "meta_classification_type": "U",
        "meta_norad_cat_id": 31057,
        "meta_element_set_no": 999,
        "meta_rev_at_epoch": 62117,
        "meta_bstar": 0.0010448205,
        "meta_mean_motion_dot": 9.107e-05,
        "meta_mean_motion_ddot": 0,
        "tle_line1": "1 31057U 99025BFB 25357.85785121  .00009107  00000+0  10448-2 0  9995",
        "tle_line2": "2 31057  99.2549  38.9584 0137633 217.0700 142.0940 14.79509399621176"
      },
      "geometry": {
        "type": "Point",
        "coordinates": [
          -151.7526714288404,
          -57.98998208761587
        ]
      }
    }
  ]
}